{"type": "FeatureCollection", "features": [ {"type": "Feature", "properties": {"norad_id": 33492, "name": "GOSAT (IBUKI)", "group": "resource", "lat": -53.33030824622479, "lon": 105.84626533289097, "alt_km": 676.4207625425352, "timestamp": "2025-12-12T05:47:28.428638+00:00", "meta": {"OBJECT_NAME": "GOSAT (IBUKI)", "OBJECT_ID": "2009-002A", "EPOCH": "2025-12-11T21:51:20.233440", "MEAN_MOTION": 14.67552551, "ECCENTRICITY": 9.406e-05, "INCLINATION": 98.0768, "RA_OF_ASC_NODE": 94.5254, "ARG_OF_PERICENTER": 91.0817, "MEAN_ANOMALY": 269.0495, "EPHEMERIS_TYPE": 0, "CLASSIFICATION_TYPE": "U", "NORAD_CAT_ID": 33492, "ELEMENT_SET_NO": 999, "REV_AT_EPOCH": 90399, "BSTAR": 0.00025937182, "MEAN_MOTION_DOT": 1.423e-05, "MEAN_MOTION_DDOT": 0}, "tle": {"line1": "1 33492U 09002A   25345.91065085  .00001423  00000+0  25937-3 0  9993", "line2": "2 33492  98.0768  94.5254 0000940  91.0817 269.0495 14.67552551903995"}}, "geometry": {"type": "Point", "coordinates": [105.84626533289097, -53.33030824622479]}}, {"type": "Feature", "properties": {"norad_id": 35681, "name": "DEIMOS-1", "group": "resource", "lat": 10.271040784744788, "lon": 145.45987157604034, "alt_km": 646.2174750678369, "timestamp": "2025-12-12T05:47:28.428650+00:00", "meta": {"OBJECT_NAME": "DEIMOS-1", "OBJECT_ID": "2009-041A", "EPOCH": "2025-12-11T23:13:54.203808", "MEAN_MOTION": 14.7495213, "ECCENTRICITY": 0.00027278, "INCLINATION": 97.715, "RA_OF_ASC_NODE": 146.607, "ARG_OF_PERICENTER": 80.9181, "MEAN_ANOMALY": 279.2337, "EPHEMERIS_TYPE": 0, "CLASSIFICATION_TYPE": "U", "NORAD_CAT_ID": 35681, "ELEMENT_SET_NO": 999, "REV_AT_EPOCH": 87928, "BSTAR": 0.00022455325, "MEAN_MOTION_DOT": 1.461e-05, "MEAN_MOTION_DDOT": 0}, "tle": {"line1": "1 35681U 09041A   25345.96798847  .00001461  00000+0  22455-3 0  9996", "line2": "2 35681  97.7150 146.6070 0002727  80.9181 279.2337 14.74952130879286"}}, "geometry": {"type": "Point", "coordinates": [145.45987157604034, 10.271040784744788]}}, {"type": "Feature", "properties": {"norad_id": 35682, "name": "DUBAISAT-1", "group": "resource", "lat": -53.3488715688034, "lon": 127.79332792139297, "alt_km": 646.7829576585245, "timestamp": "2025-12-12T05:47:28.428661+00:00", "meta": {"OBJECT_NAME": "DUBAISAT-1", "OBJECT_ID": "2009-041B", "EPOCH": "2025-12-11T23:31:17.778432", "MEAN_MOTION": 14.7460116, "ECCENTRICITY": 0.00096002, "INCLINATION": 97.9785, "RA_OF_ASC_NODE": 116.6709, "ARG_OF_PERICENTER": 317.2917, "MEAN_ANOMALY": 42.7545, "EPHEMERIS_TYPE": 0, "CLASSIFICATION_TYPE": "U", "NORAD_CAT_ID": 35682, "ELEMENT_SET_NO": 999, "REV_AT_EPOCH": 87750, "BSTAR": 0.00034685046, "MEAN_MOTION_DOT": 2.263e-05, "MEAN_MOTION_DDOT": 0}, "tle": {"line1": "1 35682U 09041B   25345.98006688  .00002263  00000+0  34685-3 0  9993", "line2": "2 35682  97.9785 116.6709 0009600 317.2917  42.7545 14.74601160877500"}}, "geometry": {"type": "Point", "coordinates": [127.79332792139297, -53.3488715688034]}}, {"type": "Feature", "properties": {"norad_id": 35931, "name": "OCEANSAT-2", "group": "resource", "lat": -75.33512862864053, "lon": 133.35217009850098, "alt_km": 912.4767061375906, "timestamp": "2025-12-12T05:47:28.428672+00:00", "meta": {"OBJECT_NAME": "OCEANSAT-2", "OBJECT_ID": "2009-051A", "EPOCH": "2025-12-11T23:24:58.517856", "MEAN_MOTION": 13.9962485, "ECCENTRICITY": 0.00162388, "INCLINATION": 98.2223, "RA_OF_ASC_NODE": 346.6538, "ARG_OF_PERICENTER": 47.0605, "MEAN_ANOMALY": 313.1921, "EPHEMERIS_TYPE": 0, "CLASSIFICATION_TYPE": "U", "NORAD_CAT_ID": 35931, "ELEMENT_SET_NO": 999, "REV_AT_EPOCH": 85314, "BSTAR": -6.7295441e-05, "MEAN_MOTION_DOT": -1.36e-06, "MEAN_MOTION_DDOT": 0}, "tle": {"line1": "1 35931U 09051A   25345.97567729 -.00000136  00000+0 -67295-4 0  9991", "line2": "2 35931  98.2223 346.6538 0016238  47.0605 313.1921 13.99624850853144"}}, "geometry": {"type": "Point", "coordinates": [133.35217009850098, -75.33512862864053]}}, {"type": "Feature", "properties": {"norad_id": 35946, "name": "WORLDVIEW-2 (WV-2)", "group": "resource", "lat": -48.547609174659144, "lon": 67.05656774808821, "alt_km": 774.73228460478, "timestamp": "2025-12-12T05:47:28.428682+00:00", "meta": {"OBJECT_NAME": "WORLDVIEW-2 (WV-2)", "OBJECT_ID": "2009-055A", "EPOCH": "2025-12-11T23:20:20.194080", "MEAN_MOTION": 14.37723811, "ECCENTRICITY": 0.00051472, "INCLINATION": 98.4791, "RA_OF_ASC_NODE": 57.0679, "ARG_OF_PERICENTER": 72.3331, "MEAN_ANOMALY": 287.8418, "EPHEMERIS_TYPE": 0, "CLASSIFICATION_TYPE": "U", "NORAD_CAT_ID": 35946, "ELEMENT_SET_NO": 999, "REV_AT_EPOCH": 84874, "BSTAR": 0.00010642203, "MEAN_MOTION_DOT": 2.77e-06, "MEAN_MOTION_DDOT": 0}, "tle": {"line1": "1 35946U 09055A   25345.97245595  .00000277  00000+0  10642-3 0  9992", "line2": "2 35946  98.4791  57.0679 0005147  72.3331 287.8418 14.37723811848743"}}, "geometry": {"type": "Point", "coordinates": [67.05656774808821, -48.547609174659144]}}, {"type": "Feature", "properties": {"norad_id": 36036, "name": "SMOS", "group": "resource", "lat": -17.21605684603805, "lon": 173.93323296020867, "alt_km": 764.4089949812505, "timestamp": "2025-12-12T05:47:28.428693+00:00", "meta": {"OBJECT_NAME": "SMOS", "OBJECT_ID": "2009-059A", "EPOCH": "2025-12-11T23:12:00.642240", "MEAN_MOTION": 14.39740214, "ECCENTRICITY": 0.00011035, "INCLINATION": 98.438, "RA_OF_ASC_NODE": 171.0265, "ARG_OF_PERICENTER": 85.138, "MEAN_ANOMALY": 274.9934, "EPHEMERIS_TYPE": 0, "CLASSIFICATION_TYPE": "U", "NORAD_CAT_ID": 36036, "ELEMENT_SET_NO": 999, "REV_AT_EPOCH": 84651, "BSTAR": 0.00020718147, "MEAN_MOTION_DOT": 6.06e-06, "MEAN_MOTION_DDOT": 0}, "tle": {"line1": "1 36036U 09059A   25345.96667410  .00000606  00000+0  20718-3 0  9991", "line2": "2 36036  98.4380 171.0265 0001103  85.1380 274.9934 14.39740214846511"}}, "geometry": {"type": "Point", "coordinates": [173.93323296020867, -17.21605684603805]}}, {"type": "Feature", "properties": {"norad_id": 36110, "name": "YAOGAN-7", "group": "resource", "lat": 77.4729514439793, "lon": 87.44688741638367, "alt_km": 645.603246774207, "timestamp": "2025-12-12T05:47:28.428703+00:00", "meta": {"OBJECT_NAME": "YAOGAN-7", "OBJECT_ID": "2009-069A", "EPOCH": "2025-12-11T14:42:54.355104", "MEAN_MOTION": 14.77729937, "ECCENTRICITY": 0.00233975, "INCLINATION": 98.0301, "RA_OF_ASC_NODE": 227.3742, "ARG_OF_PERICENTER": 285.1322, "MEAN_ANOMALY": 74.7301, "EPHEMERIS_TYPE": 0, "CLASSIFICATION_TYPE": "U", "NORAD_CAT_ID": 36110, "ELEMENT_SET_NO": 999, "REV_AT_EPOCH": 86192, "BSTAR": 0.00015791372, "MEAN_MOTION_DOT": 1.083e-05, "MEAN_MOTION_DDOT": 0}, "tle": {"line1": "1 36110U 09069A   25345.61312911  .00001083  00000+0  15791-3 0  9995", "line2": "2 36110  98.0301 227.3742 0023397 285.1322  74.7301 14.77729937861922"}}, "geometry": {"type": "Point", "coordinates": [87.44688741638367, 77.4729514439793]}}, {"type": "Feature", "properties": {"norad_id": 36605, "name": "TANDEM-X", "group": "resource", "lat": -82.46328365673563, "lon": 72.8961406152841, "alt_km": 517.0033247868832, "timestamp": "2025-12-12T05:47:28.428714+00:00", "meta": {"OBJECT_NAME": "TANDEM-X", "OBJECT_ID": "2010-030A", "EPOCH": "2025-12-11T11:12:43.510464", "MEAN_MOTION": 15.19157824, "ECCENTRICITY": 0.00018635, "INCLINATION": 97.4452, "RA_OF_ASC_NODE": 350.866, "ARG_OF_PERICENTER": 82.9447, "MEAN_ANOMALY": 277.1999, "EPHEMERIS_TYPE": 0, "CLASSIFICATION_TYPE": "U", "NORAD_CAT_ID": 36605, "ELEMENT_SET_NO": 999, "REV_AT_EPOCH": 85814, "BSTAR": 0.00012772132, "MEAN_MOTION_DOT": 2.617e-05, "MEAN_MOTION_DDOT": 0}, "tle": {"line1": "1 36605U 10030A   25345.46717026  .00002617  00000+0  12772-3 0  9993", "line2": "2 36605  97.4452 350.8660 0001863  82.9447 277.1999 15.19157824858146"}}, "geometry": {"type": "Point", "coordinates": [72.8961406152841, -82.46328365673563]}}, {"type": "Feature", "properties": {"norad_id": 36795, "name": "CARTOSAT-2B", "group": "resource", "lat": 24.79457838532171, "lon": 31.6637443694601, "alt_km": 627.1375733369568, "timestamp": "2025-12-12T05:47:28.428724+00:00", "meta": {"OBJECT_NAME": "CARTOSAT-2B", "OBJECT_ID": "2010-035A", "EPOCH": "2025-12-12T00:48:23.177376", "MEAN_MOTION": 14.78725891, "ECCENTRICITY": 0.00131193, "INCLINATION": 97.7856, "RA_OF_ASC_NODE": 35.0865, "ARG_OF_PERICENTER": 78.8922, "MEAN_ANOMALY": 281.3764, "EPHEMERIS_TYPE": 0, "CLASSIFICATION_TYPE": "U", "NORAD_CAT_ID": 36795, "ELEMENT_SET_NO": 999, "REV_AT_EPOCH": 83219, "BSTAR": 0.0010849764, "MEAN_MOTION_DOT": 7.931e-05, "MEAN_MOTION_DDOT": 0}, "tle": {"line1": "1 36795U 10035A   25346.03360159  .00007931  00000+0  10850-2 0  9991", "line2": "2 36795  97.7856  35.0865 0013119  78.8922 281.3764 14.78725891832198"}}, "geometry": {"type": "Point", "coordinates": [31.6637443694601, 24.79457838532171]}}, {"type": "Feature", "properties": {"norad_id": 36834, "name": "YAOGAN-10", "group": "resource", "lat": 80.6943464195396, "lon": -115.82886872605513, "alt_km": 606.3387155967112, "timestamp": "2025-12-12T05:47:28.428735+00:00", "meta": {"OBJECT_NAME": "YAOGAN-10", "OBJECT_ID": "2010-038A", "EPOCH": "2025-12-12T00:52:19.318080", "MEAN_MOTION": 14.84606664, "ECCENTRICITY": 0.00015468, "INCLINATION": 97.9148, "RA_OF_ASC_NODE": 5.8622, "ARG_OF_PERICENTER": 83.5679, "MEAN_ANOMALY": 356.5281, "EPHEMERIS_TYPE": 0, "CLASSIFICATION_TYPE": "U", "NORAD_CAT_ID": 36834, "ELEMENT_SET_NO": 999, "REV_AT_EPOCH": 82943, "BSTAR": 0.00058296627, "MEAN_MOTION_DOT": 4.873e-05, "MEAN_MOTION_DDOT": 0}, "tle": {"line1": "1 36834U 10038A   25346.03633470  .00004873  00000+0  58297-3 0  9997", "line2": "2 36834  97.9148   5.8622 0001546  83.5679 356.5281 14.84606664829432"}}, "geometry": {"type": "Point", "coordinates": [-115.82886872605513, 80.6943464195396]}}]}